{
"type": "FeatureCollection",
"name": "cycling_routes",
"crs": { "type": "name", "properties": { "name": "urn:ogc:def:crs:OGC:1.3:CRS84" } },
"features": [
{ "type": "Feature", "properties": { "id": "k2MDk", "name": null }, "geometry": { "type": "LineString", "coordinates": [ [ 139.655129, 35.674529 ], [ 139.656186, 35.675004 ], [ 139.656208, 35.675095 ], [ 139.657608, 35.676049 ], [ 139.657425, 35.676507 ], [ 139.657125, 35.678912 ], [ 139.657227, 35.679008 ], [ 139.657109, 35.679348 ], [ 139.657061, 35.679801 ], [ 139.656985, 35.680407 ], [ 139.656921, 35.681217 ], [ 139.656658, 35.683261 ], [ 139.656669, 35.683466 ], [ 139.656942, 35.683496 ], [ 139.657098, 35.683462 ], [ 139.658514, 35.68371 ], [ 139.658589, 35.683793 ], [ 139.658434, 35.683858 ], [ 139.658434, 35.683928 ] ] } },
{ "type": "Feature", "properties": { "id": "YyNjU", "name": null }, "geometry": { "type": "LineString", "coordinates": [ [ 139.657001, 35.671781 ], [ 139.657981, 35.672049 ], [ 139.658192, 35.672104 ] ] } },
{ "type": "Feature", "properties": { "id": "A2OTI", "name": null }, "geometry": { "type": "LineString", "coordinates": [ [ 139.665906, 35.672777 ], [ 139.668996, 35.673404 ] ] } },
{ "type": "Feature", "properties": { "id": "A0Mjg", "name": null }, "geometry": { "type": "LineString", "coordinates": [ [ 139.655081, 35.674468 ], [ 139.656347, 35.67255 ], [ 139.657028, 35.671788 ], [ 139.657704, 35.671979 ], [ 139.660692, 35.672707 ], [ 139.660864, 35.672411 ], [ 139.660907, 35.672306 ], [ 139.662269, 35.672489 ], [ 139.662259, 35.672114 ], [ 139.662291, 35.67174 ], [ 139.662709, 35.671827 ], [ 139.665853, 35.672707 ], [ 139.665917, 35.672254 ], [ 139.666078, 35.67153 ], [ 139.666089, 35.670659 ], [ 139.666035, 35.669744 ], [ 139.66611, 35.668933 ], [ 139.66611, 35.668829 ], [ 139.66684, 35.668767 ], [ 139.667151, 35.668428 ], [ 139.668192, 35.667983 ], [ 139.668374, 35.667791 ], [ 139.668535, 35.667565 ], [ 139.6689, 35.66726 ], [ 139.669297, 35.667085 ], [ 139.669608, 35.666841 ], [ 139.669801, 35.666571 ], [ 139.669951, 35.666414 ], [ 139.669962, 35.666231 ], [ 139.670139, 35.666026 ], [ 139.670217, 35.665887 ], [ 139.670356, 35.665669 ], [ 139.67045, 35.665405 ], [ 139.670753, 35.665442 ], [ 139.670793, 35.665172 ], [ 139.670737, 35.665083 ], [ 139.670716, 35.664891 ], [ 139.670643, 35.664817 ], [ 139.670552, 35.664717 ], [ 139.670506, 35.664592 ], [ 139.670531, 35.66447 ], [ 139.670638, 35.664353 ], [ 139.670689, 35.66427 ], [ 139.670697, 35.664239 ], [ 139.670697, 35.664183 ], [ 139.670488, 35.663878 ], [ 139.670321, 35.663799 ], [ 139.670278, 35.663729 ], [ 139.670308, 35.663453 ], [ 139.670343, 35.663429 ], [ 139.669814, 35.663091 ] ] } },
{ "type": "Feature", "properties": { "id": "Q5Nzk", "name": null }, "geometry": { "type": "LineString", "coordinates": [ [ 139.652045, 35.670341 ], [ 139.651079, 35.670175 ], [ 139.651326, 35.668863 ], [ 139.650382, 35.668685 ], [ 139.650081, 35.668641 ], [ 139.650151, 35.668332 ], [ 139.650312, 35.668136 ], [ 139.650462, 35.667508 ], [ 139.650564, 35.667168 ], [ 139.650688, 35.666915 ], [ 139.650891, 35.666989 ] ] } },
{ "type": "Feature", "properties": { "id": "Y5OTI", "name": null }, "geometry": { "type": "LineString", "coordinates": [ [ 139.648279, 35.647567 ], [ 139.648794, 35.647332 ], [ 139.649298, 35.648369 ], [ 139.651476, 35.647724 ], [ 139.651519, 35.647489 ], [ 139.653622, 35.646852 ], [ 139.655129, 35.646423 ], [ 139.655998, 35.646102 ] ] } },
{ "type": "Feature", "properties": { "id": "Q3OTk", "name": null }, "geometry": { "type": "LineString", "coordinates": [ [ 139.655124, 35.660129 ], [ 139.654984, 35.66006 ], [ 139.654319, 35.660138 ], [ 139.654266, 35.659519 ], [ 139.6536, 35.659449 ], [ 139.6536, 35.658848 ], [ 139.653257, 35.658717 ], [ 139.653171, 35.65836 ], [ 139.652023, 35.658246 ], [ 139.652238, 35.656764 ], [ 139.652292, 35.655779 ], [ 139.652345, 35.655422 ], [ 139.651541, 35.655204 ], [ 139.651498, 35.654733 ], [ 139.651605, 35.654524 ], [ 139.651369, 35.652719 ], [ 139.649738, 35.652772 ], [ 139.649738, 35.651996 ], [ 139.649416, 35.65183 ], [ 139.649234, 35.651447 ], [ 139.649202, 35.650409 ], [ 139.649373, 35.650357 ], [ 139.649266, 35.649485 ], [ 139.648633, 35.648256 ], [ 139.648247, 35.647602 ], [ 139.647903, 35.647733 ], [ 139.64711, 35.647654 ] ] } },
{ "type": "Feature", "properties": { "id": "M5NzU", "name": null }, "geometry": { "type": "LineString", "coordinates": [ [ 139.65459, 35.660883 ], [ 139.654687, 35.660825 ], [ 139.654716, 35.660737 ], [ 139.654802, 35.660661 ], [ 139.654907, 35.660585 ], [ 139.654928, 35.660454 ], [ 139.654979, 35.660347 ], [ 139.65506, 35.660297 ], [ 139.655113, 35.660127 ], [ 139.655172, 35.659996 ] ] } },
{ "type": "Feature", "properties": { "id": "A5NzE", "name": null }, "geometry": { "type": "LineString", "coordinates": [ [ 139.655003, 35.662561 ], [ 139.654885, 35.662579 ], [ 139.654703, 35.662363 ], [ 139.65437, 35.662049 ], [ 139.654266, 35.661744 ], [ 139.654287, 35.661478 ], [ 139.654362, 35.661158 ], [ 139.654402, 35.661114 ], [ 139.654706, 35.661154 ], [ 139.654612, 35.661008 ], [ 139.654617, 35.660916 ], [ 139.654547, 35.66087 ] ] } },
{ "type": "Feature", "properties": { "id": "UzMDU", "name": null }, "geometry": { "type": "LineString", "coordinates": [ [ 139.655041, 35.67454 ], [ 139.654697, 35.674398 ], [ 139.654488, 35.674248 ], [ 139.654008, 35.674675 ], [ 139.65348, 35.674359 ], [ 139.653128, 35.674197 ], [ 139.652967, 35.674049 ], [ 139.652849, 35.673838 ], [ 139.652332, 35.673468 ], [ 139.653262, 35.672633 ], [ 139.653268, 35.672306 ], [ 139.6516, 35.672276 ], [ 139.652828, 35.67079 ], [ 139.652592, 35.670746 ], [ 139.652871, 35.670441 ], [ 139.652077, 35.670345 ], [ 139.652281, 35.669012 ], [ 139.65286, 35.667477 ], [ 139.653654, 35.666257 ], [ 139.653815, 35.665996 ], [ 139.653879, 35.665525 ], [ 139.654233, 35.664566 ], [ 139.654459, 35.663346 ], [ 139.654748, 35.663276 ], [ 139.655135, 35.66298 ], [ 139.654896, 35.662611 ], [ 139.655733, 35.662431 ], [ 139.655854, 35.66257 ], [ 139.655899, 35.662553 ], [ 139.655762, 35.662389 ], [ 139.655017, 35.662555 ] ] } },
{ "type": "Feature", "properties": { "id": "gzMjA", "name": null }, "geometry": { "type": "LineString", "coordinates": [ [ 133.767643, 33.876126 ], [ 133.766227, 33.875056 ], [ 133.764296, 33.876161 ], [ 133.762236, 33.877266 ], [ 133.760476, 33.878407 ], [ 133.760047, 33.879512 ], [ 133.759704, 33.883041 ], [ 133.76009, 33.885537 ], [ 133.759832, 33.886998 ], [ 133.758502, 33.888959 ], [ 133.756442, 33.891275 ], [ 133.756442, 33.892167 ], [ 133.755498, 33.895018 ], [ 133.755069, 33.897477 ], [ 133.753266, 33.90097 ], [ 133.752837, 33.903429 ], [ 133.753438, 33.905745 ], [ 133.755283, 33.908026 ], [ 133.756571, 33.909737 ], [ 133.758116, 33.911625 ], [ 133.757472, 33.913728 ], [ 133.756614, 33.916757 ], [ 133.757086, 33.918788 ], [ 133.758845, 33.921068 ], [ 133.759189, 33.923634 ], [ 133.759832, 33.924952 ], [ 133.760347, 33.9257 ], [ 133.759747, 33.929192 ], [ 133.755026, 33.935355 ], [ 133.754361, 33.935883 ], [ 133.752934, 33.935261 ], [ 133.751818, 33.934709 ], [ 133.750477, 33.934994 ], [ 133.748428, 33.936009 ], [ 133.749157, 33.936134 ], [ 133.749994, 33.936116 ], [ 133.750445, 33.935893 ], [ 133.75111, 33.93608 ], [ 133.752151, 33.93665 ], [ 133.752891, 33.937238 ], [ 133.753266, 33.937612 ], [ 133.753567, 33.937467 ] ] } },
{ "type": "Feature", "properties": { "id": "c3NTM", "name": null }, "geometry": { "type": "LineString", "coordinates": [ [ 133.975632, 34.456677 ], [ 133.975804, 34.456111 ], [ 133.975503, 34.455757 ], [ 133.975353, 34.455226 ], [ 133.975718, 34.454147 ], [ 133.976061, 34.452661 ], [ 133.976598, 34.451581 ], [ 133.97692, 34.450821 ], [ 133.977842, 34.450891 ], [ 133.978937, 34.450626 ], [ 133.979838, 34.45029 ], [ 133.979752, 34.449511 ], [ 133.980396, 34.44891 ], [ 133.98104, 34.449051 ], [ 133.981104, 34.44891 ], [ 133.980567, 34.44852 ], [ 133.980803, 34.448184 ], [ 133.981683, 34.448007 ], [ 133.982069, 34.448379 ], [ 133.982799, 34.448184 ], [ 133.983572, 34.448361 ], [ 133.984258, 34.448432 ], [ 133.984666, 34.449016 ], [ 133.985245, 34.449299 ], [ 133.985975, 34.449724 ], [ 133.986211, 34.449812 ] ] } },
{ "type": "Feature", "properties": { "id": "UzMzg", "name": null }, "geometry": { "type": "LineString", "coordinates": [ [ 133.986361, 34.449901 ], [ 133.986833, 34.449954 ], [ 133.987112, 34.45029 ], [ 133.987713, 34.45052 ], [ 133.988314, 34.450131 ], [ 133.9887, 34.450131 ], [ 133.988464, 34.450467 ], [ 133.988464, 34.450944 ], [ 133.98885, 34.451086 ], [ 133.989387, 34.451475 ], [ 133.989387, 34.451794 ], [ 133.989623, 34.452183 ], [ 133.990052, 34.45282 ], [ 133.99061, 34.453439 ], [ 133.991168, 34.454483 ], [ 133.991103, 34.454802 ], [ 133.991125, 34.455439 ], [ 133.991125, 34.455863 ], [ 133.991082, 34.456146 ], [ 133.991253, 34.456253 ], [ 133.990974, 34.456677 ], [ 133.991125, 34.45689 ], [ 133.991575, 34.457137 ], [ 133.991661, 34.457385 ], [ 133.991446, 34.457827 ], [ 133.990889, 34.458323 ], [ 133.990717, 34.458712 ], [ 133.99076, 34.459101 ], [ 133.991361, 34.459278 ], [ 133.99209, 34.459543 ], [ 133.992498, 34.459897 ], [ 133.99282, 34.460127 ], [ 133.993657, 34.460039 ], [ 133.994279, 34.459738 ], [ 133.995309, 34.459915 ], [ 133.995674, 34.46034 ], [ 133.995974, 34.460605 ], [ 133.996339, 34.460552 ], [ 133.996875, 34.46064 ], [ 133.997025, 34.460287 ] ] } },
{ "type": "Feature", "properties": { "id": "Y0NTg", "name": null }, "geometry": { "type": "LineString", "coordinates": [ [ 133.99694, 34.460145 ], [ 133.99694, 34.460596 ], [ 133.996146, 34.460552 ], [ 133.996199, 34.4608 ], [ 133.996189, 34.461145 ], [ 133.995019, 34.462215 ], [ 133.994665, 34.462622 ], [ 133.994601, 34.463108 ], [ 133.994633, 34.463383 ], [ 133.994837, 34.463268 ], [ 133.995073, 34.462772 ], [ 133.995395, 34.462348 ], [ 133.99577, 34.462073 ], [ 133.996081, 34.461711 ], [ 133.996543, 34.461295 ], [ 133.996961, 34.461357 ], [ 133.997315, 34.460755 ], [ 133.99812, 34.460994 ], [ 133.998238, 34.460561 ], [ 133.998377, 34.460517 ], [ 133.998399, 34.46072 ], [ 133.998313, 34.460782 ], [ 133.998216, 34.461047 ] ] } },
{ "type": "Feature", "properties": { "id": "U2MjE", "name": null }, "geometry": { "type": "LineString", "coordinates": [ [ 133.997251, 34.460755 ], [ 133.997251, 34.460074 ], [ 133.997176, 34.459411 ], [ 133.996983, 34.459145 ], [ 133.996897, 34.458907 ] ] } },
{ "type": "Feature", "properties": { "id": "Q5MDU", "name": null }, "geometry": { "type": "LineString", "coordinates": [ [ 133.997235, 34.460123 ], [ 133.997503, 34.460149 ], [ 133.997208, 34.460154 ], [ 133.99702, 34.460304 ] ] } },
{ "type": "Feature", "properties": { "id": "AzNjU", "name": null }, "geometry": { "type": "LineString", "coordinates": [ [ 133.997573, 34.460167 ], [ 133.998039, 34.460123 ], [ 133.998077, 34.459853 ], [ 133.998238, 34.459597 ], [ 133.998399, 34.459486 ], [ 133.998426, 34.459645 ] ] } },
{ "type": "Feature", "properties": { "id": "UwMDQ", "name": null }, "geometry": { "type": "LineString", "coordinates": [ [ 133.998613, 34.460729 ], [ 133.998935, 34.460003 ], [ 133.998871, 34.45949 ], [ 133.998785, 34.458747 ], [ 133.999536, 34.458022 ], [ 134.000137, 34.457544 ], [ 134.000094, 34.456907 ], [ 133.999515, 34.45643 ], [ 133.999214, 34.455456 ], [ 133.999321, 34.454625 ], [ 133.999944, 34.453899 ], [ 133.999815, 34.453209 ], [ 133.999128, 34.452413 ], [ 133.999043, 34.451723 ], [ 133.999193, 34.450626 ], [ 133.998806, 34.449989 ], [ 133.998592, 34.449582 ], [ 133.998742, 34.44868 ], [ 133.99915, 34.447883 ], [ 133.999043, 34.447211 ], [ 133.998184, 34.446698 ], [ 133.997304, 34.446468 ], [ 133.99621, 34.446627 ], [ 133.99577, 34.446618 ] ] } },
{ "type": "Feature", "properties": { "id": "EwOTg", "name": null }, "geometry": { "type": "LineString", "coordinates": [ [ 133.992283, 34.459809 ], [ 133.989344, 34.460623 ], [ 133.988507, 34.460375 ], [ 133.987241, 34.460233 ], [ 133.984988, 34.45965 ], [ 133.9837, 34.45949 ], [ 133.982177, 34.459013 ], [ 133.980417, 34.458623 ], [ 133.979194, 34.458146 ], [ 133.976448, 34.457792 ], [ 133.975482, 34.457208 ] ] } },
{ "type": "Feature", "properties": { "id": "IwOTY", "name": null }, "geometry": { "type": "LineString", "coordinates": [ [ 139.655124, 35.674546 ], [ 139.654073, 35.67588 ], [ 139.654276, 35.676917 ], [ 139.654008, 35.677013 ], [ 139.654115, 35.678625 ], [ 139.65404, 35.678982 ], [ 139.654834, 35.679026 ], [ 139.65551, 35.679984 ], [ 139.655703, 35.679897 ], [ 139.655778, 35.680071 ], [ 139.655424, 35.680194 ], [ 139.655489, 35.680333 ], [ 139.656014, 35.681457 ], [ 139.655167, 35.681788 ], [ 139.655221, 35.682398 ], [ 139.6558, 35.682477 ], [ 139.656283, 35.682695 ], [ 139.656261, 35.683052 ] ] } },
{ "type": "Feature", "properties": { "id": "U2MTk", "name": null }, "geometry": { "type": "LineString", "coordinates": [ [ 139.651036, 35.670166 ], [ 139.649931, 35.669826 ], [ 139.648713, 35.669134 ], [ 139.648917, 35.668532 ], [ 139.649169, 35.667861 ], [ 139.649534, 35.667216 ], [ 139.649663, 35.666763 ], [ 139.649679, 35.66563 ], [ 139.649706, 35.662858 ], [ 139.649663, 35.662173 ], [ 139.649674, 35.661903 ], [ 139.649545, 35.661132 ], [ 139.649395, 35.660382 ], [ 139.649341, 35.659811 ], [ 139.649373, 35.65955 ], [ 139.648724, 35.658429 ], [ 139.648595, 35.656917 ], [ 139.648585, 35.655949 ], [ 139.648499, 35.655644 ], [ 139.648236, 35.655405 ], [ 139.647877, 35.654794 ], [ 139.647539, 35.654594 ], [ 139.647405, 35.654376 ], [ 139.647292, 35.654149 ], [ 139.647104, 35.653914 ], [ 139.647147, 35.653726 ], [ 139.646943, 35.65367 ] ] } },
{ "type": "Feature", "properties": { "id": "kzMzU", "name": null }, "geometry": { "type": "LineString", "coordinates": [ [ 139.649781, 35.664601 ], [ 139.650414, 35.664714 ], [ 139.651068, 35.664897 ], [ 139.65168, 35.664889 ], [ 139.651637, 35.665272 ], [ 139.651476, 35.665708 ], [ 139.651197, 35.666231 ], [ 139.650661, 35.666885 ], [ 139.650908, 35.666963 ] ] } },
{ "type": "Feature", "properties": { "id": "cyODk", "name": "2025-02 Kyodo & Chitose Funabashi" }, "geometry": { "type": "LineString", "coordinates": [ [ 139.645286, 35.631701 ], [ 139.646058, 35.63198 ], [ 139.642625, 35.64081 ], [ 139.642282, 35.644613 ], [ 139.642153, 35.648451 ], [ 139.640179, 35.649638 ], [ 139.640565, 35.650615 ], [ 139.638119, 35.651173 ], [ 139.637175, 35.651627 ], [ 139.636273, 35.651906 ], [ 139.636831, 35.650475 ], [ 139.63666, 35.649638 ], [ 139.635329, 35.649882 ], [ 139.6349, 35.650859 ], [ 139.628549, 35.648731 ], [ 139.626145, 35.648033 ], [ 139.62563, 35.648765 ], [ 139.624944, 35.649045 ], [ 139.624429, 35.647544 ], [ 139.624472, 35.646393 ], [ 139.623656, 35.646567 ], [ 139.623785, 35.647125 ], [ 139.622583, 35.647125 ], [ 139.622004, 35.646631 ], [ 139.623055, 35.644822 ], [ 139.626317, 35.643601 ], [ 139.629192, 35.642414 ], [ 139.630609, 35.641123 ], [ 139.63078, 35.639832 ], [ 139.633183, 35.639727 ], [ 139.634557, 35.638366 ], [ 139.636445, 35.636307 ], [ 139.637818, 35.634179 ], [ 139.638677, 35.63212 ] ] } },
{ "type": "Feature", "properties": { "id": "g1MDQ", "name": "2025-02 Todoroki" }, "geometry": { "type": "LineString", "coordinates": [ [ 139.641466, 35.632426 ], [ 139.642196, 35.630751 ], [ 139.643826, 35.631484 ], [ 139.643998, 35.628657 ], [ 139.644728, 35.627505 ], [ 139.641895, 35.626074 ], [ 139.643698, 35.623187 ], [ 139.644234, 35.622885 ], [ 139.644942, 35.621873 ], [ 139.6455, 35.619971 ], [ 139.643269, 35.619412 ], [ 139.642346, 35.619046 ], [ 139.641938, 35.618784 ], [ 139.642024, 35.617667 ], [ 139.64211, 35.616044 ], [ 139.642239, 35.61381 ], [ 139.642217, 35.613356 ], [ 139.642518, 35.612448 ], [ 139.642882, 35.611436 ], [ 139.642303, 35.611454 ], [ 139.642496, 35.610808 ], [ 139.643376, 35.610249 ], [ 139.644363, 35.60983 ], [ 139.645908, 35.609551 ], [ 139.647582, 35.609062 ], [ 139.647281, 35.608521 ], [ 139.648032, 35.608312 ] ] } },
{ "type": "Feature", "properties": { "id": null, "name": null }, "geometry": { "type": "LineString", "coordinates": [ [ 139.654955723613085, 35.674467009048811 ], [ 139.654497983125708, 35.674240275491286 ], [ 139.65403652117098, 35.674672580250878 ], [ 139.653121040196254, 35.674191905582298 ], [ 139.652964738566396, 35.674052841930731 ], [ 139.652849373077714, 35.673829130330624 ], [ 139.652306038840663, 35.673454260838241 ], [ 139.651870627157592, 35.673151945448971 ], [ 139.651997157048413, 35.672861721597968 ], [ 139.651982271178895, 35.672329641796914 ], [ 139.651468708680881, 35.672263131572379 ], [ 139.650955, 35.67247 ], [ 139.649033, 35.673378 ], [ 139.647352765761923, 35.674173766858878 ], [ 139.64595, 35.675053 ], [ 139.64473, 35.675659 ], [ 139.643723, 35.676231 ], [ 139.642822, 35.676704 ], [ 139.643524, 35.676205 ], [ 139.643433388585919, 35.676451263289458 ], [ 139.642762388585908, 35.676745263289462 ], [ 139.643006091865573, 35.677372164695285 ], [ 139.642552072845604, 35.678031175921667 ], [ 139.642299013063877, 35.678406023915855 ], [ 139.64241, 35.679253 ], [ 139.642563, 35.680382 ], [ 139.642648830997388, 35.681592160772908 ], [ 139.640579695135784, 35.681187099199192 ], [ 139.64051442188233, 35.681836384408939 ] ] } },
{ "type": "Feature", "properties": { "id": null, "name": null }, "geometry": { "type": "LineString", "coordinates": [ [ 139.64045507325298, 35.68178257189453 ], [ 139.64054248046196, 35.68130196761556 ], [ 139.640503, 35.681416 ], [ 139.640481819043828, 35.681806822804283 ] ] } },
{ "type": "Feature", "properties": { "id": null, "name": null }, "geometry": { "type": "LineString", "coordinates": [ [ 139.640497369958581, 35.681820923110109 ], [ 139.640590859537866, 35.681205236328566 ], [ 139.641556, 35.681416 ], [ 139.64325, 35.681831 ], [ 139.642663716866906, 35.681622389166108 ], [ 139.642517, 35.680393 ], [ 139.642395, 35.679096 ], [ 139.642291570129203, 35.67839997799441 ], [ 139.642929, 35.677498 ], [ 139.643296366320953, 35.677057772101051 ], [ 139.643753, 35.676682 ], [ 139.64334102392948, 35.676985219788001 ], [ 139.643199608169169, 35.676580134828008 ], [ 139.643723, 35.676182 ], [ 139.644256504904206, 35.676773608498273 ], [ 139.646280983157283, 35.675751820374643 ], [ 139.646690344568754, 35.67651362814555 ], [ 139.648926, 35.67572 ], [ 139.650769072813915, 35.674856989261031 ], [ 139.65152, 35.674442 ], [ 139.651907841831274, 35.674306784068257 ], [ 139.652897752153564, 35.674911404953107 ], [ 139.654043964105682, 35.67469374196223 ], [ 139.654709, 35.674973 ], [ 139.655011545623751, 35.67449724014115 ], [ 139.654992938286881, 35.674482124596416 ] ] } },
{ "type": "Feature", "properties": { "id": null, "name": null }, "geometry": { "type": "LineString", "coordinates": [ [ 139.654892, 35.674515 ], [ 139.65448, 35.675438 ], [ 139.653336, 35.676491 ], [ 139.652442261071769, 35.677159524648012 ], [ 139.651335548964681, 35.677527454321101 ], [ 139.650412576705548, 35.677610758917233 ], [ 139.650032277950572, 35.677850259146688 ], [ 139.650497, 35.679035 ], [ 139.650839878677374, 35.679675990893507 ], [ 139.65125436159002, 35.680023083458167 ], [ 139.651749, 35.680294 ], [ 139.652194425928087, 35.680526364995153 ], [ 139.653758351145029, 35.680821390627223 ], [ 139.653959183071805, 35.680783210900998 ], [ 139.654134376880279, 35.680599253782169 ], [ 139.654348027866206, 35.680335465475487 ], [ 139.655271000125367, 35.680231338272272 ], [ 139.656134150108471, 35.679939781380348 ], [ 139.657245135235257, 35.680245221907221 ], [ 139.658052735962031, 35.680311169140232 ], [ 139.658951, 35.680164 ], [ 139.659420102271952, 35.679957135987067 ], [ 139.660721, 35.680634 ], [ 139.661210497533943, 35.681074764711106 ], [ 139.661612161387467, 35.682126432102628 ], [ 139.661513881933985, 35.682390214488422 ], [ 139.662018, 35.683834 ], [ 139.662381304936815, 35.684670507441545 ], [ 139.662552, 35.685143 ], [ 139.662915432401576, 35.685985897935289 ], [ 139.663282912097401, 35.687009735683645 ], [ 139.663176086604437, 35.687061794879114 ], [ 139.663171813584711, 35.687932913709432 ], [ 139.663419648728365, 35.688137677312632 ], [ 139.663650391793169, 35.6884882036167 ], [ 139.663859769759341, 35.689126782231376 ], [ 139.665150221714356, 35.689813942639013 ], [ 139.66641930857071, 35.690511508513069 ], [ 139.666453492728465, 35.690629504127344 ], [ 139.666996166232707, 35.690702383684247 ], [ 139.667940503590472, 35.690799556323199 ], [ 139.66886774886936, 35.690903669733572 ], [ 139.669739, 35.691013 ], [ 139.670846156998977, 35.691118837017683 ], [ 139.671756310198987, 35.691226420442078 ], [ 139.671846043613073, 35.691497113577682 ], [ 139.6730510351737, 35.692111375362337 ], [ 139.673843, 35.692524 ], [ 139.673820178722991, 35.692708280587034 ], [ 139.674423, 35.693058 ], [ 139.675952415562506, 35.693037964697226 ], [ 139.676986486334357, 35.693093490308009 ], [ 139.677883820475245, 35.692833213673367 ], [ 139.678772, 35.692547 ], [ 139.680195524142903, 35.692135668104036 ], [ 139.680862115218986, 35.691948266762189 ], [ 139.681738084261241, 35.692003793131605 ], [ 139.68194746222747, 35.692982439047789 ], [ 139.682175, 35.694046 ], [ 139.682336307021842, 35.695033392066613 ], [ 139.682632, 35.696209 ], [ 139.682656783500704, 35.696820558544317 ], [ 139.682609780283798, 35.696917723729129 ], [ 139.682652510480978, 35.697136344962068 ], [ 139.682767882013394, 35.69719186771944 ], [ 139.682784974092243, 35.697958771850928 ], [ 139.681152680559848, 35.698482760930233 ], [ 139.680511727602067, 35.69833354584771 ], [ 139.680084425630213, 35.698479290815207 ], [ 139.68032371473447, 35.698944284883183 ], [ 139.679934869940098, 35.699131669785821 ], [ 139.679879320683739, 35.6993294644831 ], [ 139.68010151770909, 35.699676471538488 ], [ 139.678853795951312, 35.700054707508727 ], [ 139.67832394150625, 35.699825684108006 ], [ 139.67778, 35.69936 ], [ 139.677139, 35.69873 ], [ 139.677123222965378, 35.697760973753596 ], [ 139.677118949945651, 35.697542354233107 ], [ 139.675102084638553, 35.697590936400566 ], [ 139.672730558694838, 35.697424368850584 ], [ 139.670961528531421, 35.697417428523707 ], [ 139.670431674086331, 35.696872611390049 ], [ 139.670521407500416, 35.696796267229601 ], [ 139.670333394632792, 35.696813618169429 ], [ 139.670465858244057, 35.696699101896805 ], [ 139.670367578790547, 35.696542943078214 ], [ 139.67011119760744, 35.696480479465151 ], [ 139.669525, 35.695641 ], [ 139.668503, 35.694527 ], [ 139.668329348384844, 35.694315043965069 ], [ 139.667402103105957, 35.693749383660077 ], [ 139.666718, 35.693466 ], [ 139.666137289269273, 35.693426643160905 ], [ 139.665372418739679, 35.693211482102555 ], [ 139.665214317010111, 35.692906091216663 ], [ 139.664744284841078, 35.692576406561358 ], [ 139.664536, 35.692188 ], [ 139.664410989303065, 35.691802509858533 ], [ 139.664064874705872, 35.691448527697908 ], [ 139.66381703956219, 35.6909696081565 ], [ 139.66336837249176, 35.690698913230655 ], [ 139.662903, 35.690605 ], [ 139.662283025483276, 35.690570506342013 ], [ 139.661078033922678, 35.690192225387499 ], [ 139.65994141067759, 35.689869470494237 ], [ 139.65891588594522, 35.68959530133322 ], [ 139.658074101060691, 35.689518950259867 ], [ 139.658300571105713, 35.688706847957008 ], [ 139.65836039338177, 35.68838061649906 ], [ 139.657928, 35.688194 ], [ 139.657142582762049, 35.68808908938653 ], [ 139.657135, 35.688381 ], [ 139.657270773353616, 35.688932432759366 ], [ 139.657403236964882, 35.689046960184086 ], [ 139.657300684491616, 35.689498127227182 ], [ 139.656963115933877, 35.689432187587798 ], [ 139.656464, 35.689137 ], [ 139.655172720671857, 35.688564555676642 ], [ 139.655533, 35.687778 ], [ 139.655807, 35.687077 ], [ 139.656113, 35.686142 ], [ 139.656586, 35.685078 ], [ 139.656845, 35.683865 ], [ 139.656845, 35.682873 ], [ 139.656952, 35.681534 ], [ 139.657210951077559, 35.680338936379911 ], [ 139.656211064463463, 35.680113327277653 ], [ 139.654219837274667, 35.680425708941698 ], [ 139.653894019521175, 35.680828332393638 ], [ 139.653672890750698, 35.68084221592472 ], [ 139.653859835363392, 35.680351084544228 ], [ 139.653950637032381, 35.680245221907192 ], [ 139.653924998914107, 35.679758425514294 ], [ 139.654068, 35.678829 ], [ 139.654036097426797, 35.677918811616244 ], [ 139.653748, 35.677959 ], [ 139.653061848930975, 35.677766087046486 ], [ 139.652762737550688, 35.677793855171814 ], [ 139.652164514790115, 35.67790492757652 ], [ 139.652096146474634, 35.677314853655552 ], [ 139.652694369235206, 35.677064938679621 ], [ 139.653702, 35.676174 ], [ 139.654373, 35.675419 ], [ 139.654907, 35.674755 ], [ 139.655228, 35.675266 ], [ 139.654892, 35.674503 ], [ 139.654892, 35.674503 ] ] } },
{ "type": "Feature", "properties": { "id": null, "name": null }, "geometry": { "type": "LineString", "coordinates": [ [ 139.640540365834937, 35.681812810366353 ], [ 139.640581445703873, 35.681167521823973 ], [ 139.642653260828894, 35.681684770276917 ], [ 139.643415617043701, 35.681874184364553 ], [ 139.643559119390034, 35.681451644628687 ], [ 139.643478, 35.680859 ], [ 139.643723, 35.679512 ], [ 139.643899937462521, 35.67832623813284 ], [ 139.645200427476055, 35.678435520145548 ], [ 139.645191458579404, 35.678333523605005 ], [ 139.645882063621087, 35.678180528549753 ], [ 139.647446, 35.677998 ], [ 139.647837283089643, 35.677969249181693 ], [ 139.648743141650812, 35.678063960691716 ], [ 139.648886643997145, 35.678238812414911 ], [ 139.649992060508623, 35.677869073423764 ], [ 139.650480865375783, 35.677606794480091 ], [ 139.651321, 35.67754 ], [ 139.652481, 35.677132 ], [ 139.652799325158497, 35.677042163273214 ], [ 139.653625, 35.676228 ], [ 139.654434, 35.675407 ], [ 139.654969798146539, 35.674612382108386 ], [ 139.654947375904925, 35.674528595231543 ] ] } },
{ "type": "Feature", "properties": { "id": null, "name": null }, "geometry": { "type": "LineString", "coordinates": [ [ 139.649971880491137, 35.67788182307266 ], [ 139.648839557289762, 35.678331702237024 ], [ 139.648166890041381, 35.678535695192387 ], [ 139.648429230268192, 35.678901788384948 ], [ 139.646805, 35.679348 ], [ 139.645935, 35.679615 ], [ 139.64624, 35.680233 ], [ 139.645309, 35.68071 ], [ 139.643953750842371, 35.681284085148299 ], [ 139.643523243803429, 35.681342366746598 ], [ 139.643433554836975, 35.68190332495351 ], [ 139.640808, 35.681206 ], [ 139.64063351956284, 35.681817692034492 ] ] } },
{ "type": "Feature", "properties": { "id": null, "name": null }, "geometry": { "type": "LineString", "coordinates": [ [ 139.635322955261699, 35.678066935161176 ], [ 139.635498, 35.678009 ], [ 139.636119419622958, 35.677798039628271 ], [ 139.636505082178672, 35.677455619419518 ], [ 139.637393002946538, 35.677499332719471 ], [ 139.637410940739841, 35.677965606429026 ], [ 139.638101545781495, 35.677747040966899 ], [ 139.638603803993618, 35.677003913917915 ], [ 139.639186782275544, 35.676413778684655 ], [ 139.63945584917488, 35.676391921740354 ], [ 139.639481, 35.676476 ], [ 139.639976045180305, 35.677047627465292 ], [ 139.640701, 35.676781 ], [ 139.642325896101283, 35.676202494639028 ], [ 139.643626386114761, 35.675743496336487 ], [ 139.643832670737623, 35.676173351968146 ], [ 139.644348, 35.675884 ], [ 139.644867, 35.675632 ], [ 139.64611506220669, 35.674899715301599 ], [ 139.647106318013016, 35.674315484735331 ], [ 139.648770533449692, 35.673461285904828 ], [ 139.650116, 35.672867 ], [ 139.651510046265713, 35.672231707677852 ], [ 139.651958491097957, 35.672319139976494 ], [ 139.652021273374459, 35.672800015907043 ], [ 139.651877771028154, 35.673127884198607 ], [ 139.652326215860398, 35.673470322976272 ], [ 139.652924, 35.673946 ], [ 139.653097540971885, 35.674184339531777 ], [ 139.654021337326299, 35.674657918417601 ], [ 139.65448, 35.674309 ], [ 139.654892, 35.674511 ], [ 139.655052760440498, 35.674570488680956 ], [ 139.654892, 35.674511 ], [ 139.654892, 35.674511 ] ] } },
{ "type": "Feature", "properties": { "id": null, "name": null }, "geometry": { "type": "LineString", "coordinates": [ [ 139.652066616286106, 35.691541574323828 ], [ 139.652176, 35.691124 ], [ 139.652276886928831, 35.690590388476679 ], [ 139.652191, 35.690002 ], [ 139.652161, 35.689278 ], [ 139.652196166859028, 35.688769279525836 ], [ 139.652618, 35.687954 ], [ 139.652859865210729, 35.687239515876598 ], [ 139.652893, 35.686295 ], [ 139.653335216732927, 35.685811710003023 ], [ 139.653397, 35.685223 ], [ 139.653308310043002, 35.684850112055138 ], [ 139.65341593680273, 35.684529576830194 ], [ 139.653873350531626, 35.684369308734787 ], [ 139.653711910392019, 35.683779227972323 ], [ 139.65306614983362, 35.683276563139721 ], [ 139.652752238451029, 35.683203712901239 ], [ 139.652841927417455, 35.682854030830555 ], [ 139.65257286051812, 35.682686474295231 ], [ 139.653003367557062, 35.682103666214452 ], [ 139.653488, 35.681095 ], [ 139.653778, 35.680496 ], [ 139.653954070601458, 35.679721393920779 ], [ 139.653164807696697, 35.679714108575318 ], [ 139.652904709694013, 35.678512017465344 ], [ 139.652635642794621, 35.67704034187571 ], [ 139.653458, 35.676407 ], [ 139.654358, 35.675461 ], [ 139.654861, 35.674759 ], [ 139.654861, 35.674759 ] ] } },
{ "type": "Feature", "properties": { "id": null, "name": null }, "geometry": { "type": "LineString", "coordinates": [ [ 139.658142, 35.675518 ], [ 139.6586, 35.674946 ], [ 139.659607, 35.674191 ], [ 139.659927, 35.673698 ], [ 139.660309, 35.673115 ], [ 139.6604, 35.672562 ], [ 139.660263, 35.673214 ], [ 139.660446, 35.673893 ], [ 139.662354, 35.674553 ], [ 139.663742, 35.675228 ], [ 139.66507, 35.675652 ], [ 139.666336, 35.676224 ], [ 139.667664, 35.676571 ], [ 139.668823, 35.677013 ], [ 139.66951, 35.677208 ], [ 139.670456, 35.677582 ], [ 139.671539, 35.678001 ], [ 139.672379, 35.678257 ], [ 139.673538, 35.678692 ], [ 139.676041, 35.679508 ], [ 139.676773, 35.68013 ], [ 139.676208, 35.680729 ], [ 139.677124, 35.679462 ], [ 139.677453999886581, 35.678997652311601 ], [ 139.677864326908093, 35.677716259616233 ], [ 139.676773, 35.677238 ], [ 139.676897778812986, 35.677271841159026 ], [ 139.676523925304508, 35.677286655147469 ], [ 139.676925133947748, 35.676953339742262 ], [ 139.677032, 35.676708 ], [ 139.677261, 35.676231 ], [ 139.677734, 35.67585 ], [ 139.678558, 35.675255 ], [ 139.679352, 35.674789 ], [ 139.679915962015627, 35.674605278441781 ], [ 139.679123, 35.674885 ], [ 139.678574, 35.675247 ], [ 139.67778, 35.6758 ], [ 139.677353, 35.676136 ], [ 139.677094, 35.676563 ], [ 139.676941, 35.67725 ], [ 139.677185, 35.676327 ], [ 139.676615109087066, 35.675820056951082 ], [ 139.675278, 35.675129 ], [ 139.674255, 35.674042 ], [ 139.673286901023715, 35.672983075869212 ], [ 139.672607, 35.671631 ], [ 139.672511838871998, 35.670131178630804 ], [ 139.672283879415602, 35.670116363314172 ], [ 139.672457128602446, 35.669523748394191 ], [ 139.671982972933165, 35.669308924399218 ], [ 139.671116726998861, 35.669649679432808 ], [ 139.670724636733866, 35.670353408050275 ], [ 139.669434, 35.671223 ], [ 139.668527107574249, 35.671812699200672 ], [ 139.667615269748666, 35.673160853102267 ], [ 139.666785497327396, 35.672997890653754 ], [ 139.666046, 35.672855 ], [ 139.664703, 35.672451 ], [ 139.6633, 35.672016 ], [ 139.661957, 35.671677 ], [ 139.66128711523919, 35.671390470493968 ], [ 139.66066, 35.672394 ], [ 139.658478654736456, 35.67187936668703 ], [ 139.656738, 35.671494 ], [ 139.655679312611909, 35.670931201645423 ], [ 139.654419, 35.670681 ], [ 139.653442, 35.670578 ], [ 139.652176, 35.67046 ], [ 139.651169, 35.670082 ], [ 139.651337, 35.669064 ], [ 139.650787, 35.668732 ], [ 139.650131, 35.668636 ], [ 139.650696, 35.66872 ], [ 139.65131160942741, 35.668812604682792 ], [ 139.651083649971014, 35.670168216910319 ], [ 139.652086671579184, 35.670294146932221 ] ] } },
{ "type": "Feature", "properties": { "id": null, "name": null }, "geometry": { "type": "LineString", "coordinates": [ [ 139.665665, 35.668964 ], [ 139.666931, 35.668873 ], [ 139.668153254065714, 35.668805196902461 ], [ 139.669205, 35.668793 ], [ 139.672104, 35.668556 ], [ 139.672913047515209, 35.668545924157712 ], [ 139.67424, 35.668526 ], [ 139.675803573422286, 35.668427399193924 ], [ 139.677002, 35.66843 ], [ 139.678253, 35.668335 ], [ 139.679177373376888, 35.668286650570856 ] ] } },
{ "type": "Feature", "properties": { "id": null, "name": null }, "geometry": { "type": "LineString", "coordinates": [ [ 139.679155355523392, 35.668482058318581 ], [ 139.677658, 35.668423 ], [ 139.676483, 35.668388 ], [ 139.675507, 35.668339 ], [ 139.673889, 35.668449 ], [ 139.672897, 35.668472 ], [ 139.671631, 35.668598 ], [ 139.669724, 35.668713 ], [ 139.667496, 35.668781 ], [ 139.665894, 35.6689 ], [ 139.664660915193792, 35.668975575676221 ], [ 139.662917884874304, 35.668966145725328 ], [ 139.661452884874308, 35.669088145725325 ], [ 139.661514, 35.670662 ], [ 139.660995, 35.671707 ], [ 139.660876788217621, 35.672197888353274 ], [ 139.660385, 35.673008 ], [ 139.660047015796351, 35.673805292252666 ], [ 139.658423944466875, 35.673242334201724 ], [ 139.657471, 35.672836 ], [ 139.656464, 35.673954 ], [ 139.656097, 35.674572 ], [ 139.655121, 35.674332 ], [ 139.655121, 35.674332 ] ] } },
{ "type": "Feature", "properties": { "id": null, "name": null }, "geometry": { "type": "LineString", "coordinates": [ [ 139.657761, 35.67252 ], [ 139.658035, 35.6721 ], [ 139.658585, 35.671757 ], [ 139.658508, 35.670994 ], [ 139.657913, 35.6712 ], [ 139.658524, 35.670898 ], [ 139.659393, 35.670773 ], [ 139.660019, 35.670654 ], [ 139.66069, 35.670582 ], [ 139.662064, 35.670628 ], [ 139.662643, 35.671001 ], [ 139.663849, 35.671547 ], [ 139.665237, 35.671509 ], [ 139.667252, 35.671635 ], [ 139.668732, 35.671139 ], [ 139.67009, 35.669964 ], [ 139.671555, 35.668896 ], [ 139.672684, 35.668587 ], [ 139.674301, 35.66853 ], [ 139.676346, 35.668465 ], [ 139.678558, 35.668301 ], [ 139.679596, 35.668289 ], [ 139.681305, 35.668182 ], [ 139.681885, 35.668152 ], [ 139.683472, 35.668076 ], [ 139.68576, 35.667973 ], [ 139.687683, 35.6679 ], [ 139.688416, 35.667839 ], [ 139.690186, 35.667664 ], [ 139.691208, 35.66782 ], [ 139.69189862696939, 35.667768406635311 ] ] } },
{ "type": "Feature", "properties": { "id": null, "name": null }, "geometry": { "type": "LineString", "coordinates": [ [ 139.643845, 35.676304 ], [ 139.643463, 35.675331 ], [ 139.642197, 35.675419 ], [ 139.641235, 35.675217 ], [ 139.639526, 35.675365 ], [ 139.638718, 35.675392 ], [ 139.637589, 35.675819 ], [ 139.63652, 35.676098 ], [ 139.636597, 35.67709 ], [ 139.635554748002676, 35.677057204078395 ], [ 139.635499420935815, 35.677861182581182 ], [ 139.635892857855964, 35.678520339037554 ], [ 139.635391, 35.678669 ], [ 139.635124426371277, 35.678140825379153 ], [ 139.635585485262084, 35.677986023237075 ], [ 139.635929742567242, 35.678500364679493 ], [ 139.63707, 35.678104 ], [ 139.638306, 35.677456 ], [ 139.638634621393436, 35.676962324093402 ], [ 139.639212481869947, 35.676403029257997 ], [ 139.639452232493198, 35.676398035536451 ], [ 139.639969, 35.677101 ], [ 139.640485004408646, 35.677763806733999 ], [ 139.642044, 35.676922 ], [ 139.643066, 35.676582 ], [ 139.643875, 35.676243 ], [ 139.644702156396789, 35.677539092787036 ], [ 139.645095593316938, 35.677099650350961 ], [ 139.645722633408496, 35.676909890369117 ], [ 139.646576, 35.676514 ], [ 139.648926, 35.675556 ], [ 139.650482, 35.674911 ], [ 139.651443, 35.674511 ], [ 139.651943854708804, 35.67431312949401 ], [ 139.652542, 35.67466 ], [ 139.652915152105464, 35.674912389503028 ], [ 139.653689731042078, 35.674792537861187 ], [ 139.654046283250977, 35.674662698379429 ], [ 139.654266, 35.674374 ], [ 139.654907, 35.674492 ], [ 139.654907, 35.674492 ] ] } },
{ "type": "Feature", "properties": { "id": null, "name": null }, "geometry": { "type": "LineString", "coordinates": [ [ 139.657822, 35.672455 ], [ 139.658279, 35.671783 ], [ 139.657913, 35.672184 ], [ 139.657516, 35.672668 ], [ 139.656738, 35.673378 ], [ 139.656464, 35.67403 ], [ 139.656082, 35.674595 ], [ 139.655258, 35.674549 ], [ 139.655258, 35.674549 ] ] } },
{ "type": "Feature", "properties": { "id": null, "name": null }, "geometry": { "type": "LineString", "coordinates": [ [ 139.649704, 35.663757 ], [ 139.649704, 35.663767 ] ] } },
{ "type": "Feature", "properties": { "id": null, "name": null }, "geometry": { "type": "LineString", "coordinates": [ [ 139.691893532403355, 35.667777171335764 ], [ 139.691772, 35.667732 ], [ 139.689087, 35.66769 ], [ 139.688461, 35.667915 ], [ 139.687771204252414, 35.667960696771026 ], [ 139.687768804179456, 35.668020627743779 ] ] } }
]
}
