{
"type": "FeatureCollection",
"name": "ferries",
"crs": { "type": "name", "properties": { "name": "urn:ogc:def:crs:OGC:1.3:CRS84" } },
"features": [
{ "type": "Feature", "properties": { "id": "Q5ODI", "_umap_options": null }, "geometry": { "type": "LineString", "coordinates": [ [ 141.063219, 38.368512 ], [ 141.065784, 38.364036 ], [ 141.068573, 38.358938 ], [ 141.070955, 38.354732 ], [ 141.073294, 38.34482 ], [ 141.080332, 38.332837 ], [ 141.083164, 38.326912 ], [ 141.089516, 38.324016 ], [ 141.097584, 38.323612 ], [ 141.104794, 38.32341 ], [ 141.111317, 38.323545 ], [ 141.113033, 38.324622 ], [ 141.112947, 38.326777 ], [ 141.11063, 38.329134 ], [ 141.107025, 38.33176 ], [ 141.104279, 38.334251 ], [ 141.101704, 38.336674 ], [ 141.099386, 38.340108 ], [ 141.098871, 38.344012 ], [ 141.099043, 38.345022 ], [ 141.089859, 38.354042 ], [ 141.084366, 38.357003 ], [ 141.079731, 38.358349 ], [ 141.074152, 38.359763 ], [ 141.068401, 38.362791 ], [ 141.066084, 38.365685 ], [ 141.064914, 38.366291 ], [ 141.064239, 38.366922 ], [ 141.063327, 38.368512 ] ] } },
{ "type": "Feature", "properties": { "id": "U4NzE", "_umap_options": { "color": "MediumBlue", "dashArray": "5, 5, 5" } }, "geometry": { "type": "LineString", "coordinates": [ [ 140.575047, 36.308901 ], [ 140.575047, 36.303782 ], [ 140.587578, 36.285381 ], [ 140.601139, 36.27694 ], [ 140.610409, 36.275002 ], [ 140.626888, 36.276386 ], [ 140.640965, 36.28718 ], [ 140.675983, 36.323009 ], [ 140.760441, 36.399731 ], [ 140.809364, 36.502461 ], [ 140.821037, 36.527019 ], [ 140.860004, 36.600783 ], [ 140.93605, 36.744937 ], [ 140.975189, 36.821378 ], [ 141.014328, 36.90598 ], [ 141.061707, 37.008036 ], [ 141.069946, 37.022291 ], [ 141.080246, 37.077641 ], [ 141.127625, 37.177278 ], [ 141.194916, 37.30246 ], [ 141.260147, 37.418163 ], [ 141.306152, 37.497742 ], [ 141.395416, 37.688167 ], [ 141.467514, 37.880273 ], [ 141.514893, 38.01564 ], [ 141.613083, 38.203116 ], [ 141.670074, 38.343272 ], [ 141.733246, 38.507341 ], [ 141.858215, 38.826871 ], [ 141.950226, 39.063449 ], [ 142.108154, 39.523111 ], [ 141.959839, 40.465756 ], [ 141.811523, 41.382991 ], [ 141.69342, 42.114524 ], [ 141.643982, 42.407235 ], [ 141.608963, 42.600104 ], [ 141.632663, 42.636903 ] ] } },
{ "type": "Feature", "properties": { "id": "kyMTc", "_umap_options": null }, "geometry": { "type": "LineString", "coordinates": [ [ 135.146255, 34.217308 ], [ 135.143166, 34.217876 ], [ 135.137844, 34.215817 ], [ 135.133038, 34.214751 ], [ 135.127802, 34.214964 ], [ 135.119476, 34.216314 ], [ 135.112267, 34.216669 ], [ 135.101709, 34.213828 ], [ 135.070381, 34.202891 ], [ 135.025234, 34.188045 ], [ 134.989958, 34.176039 ], [ 134.960432, 34.166234 ], [ 134.922838, 34.153443 ], [ 134.87134, 34.135958 ], [ 134.810915, 34.115342 ], [ 134.752207, 34.095646 ], [ 134.692726, 34.075731 ], [ 134.630585, 34.054627 ], [ 134.613075, 34.048495 ], [ 134.603634, 34.048281 ], [ 134.587626, 34.053246 ], [ 134.585395, 34.05442 ], [ 134.583979, 34.056128 ] ] } },
{ "type": "Feature", "properties": { "id": "Y1ODM", "_umap_options": null }, "geometry": { "type": "LineString", "coordinates": [ [ 141.018405, 43.19098 ], [ 141.017118, 43.190534 ], [ 141.016924, 43.190855 ], [ 141.018223, 43.19134 ], [ 141.018212, 43.191497 ], [ 141.017826, 43.191786 ], [ 141.017289, 43.192154 ], [ 141.01715, 43.192373 ], [ 141.017096, 43.192904 ], [ 141.017343, 43.195079 ], [ 141.0176, 43.196049 ], [ 141.018147, 43.196862 ], [ 141.019092, 43.19773 ], [ 141.021323, 43.198481 ], [ 141.022664, 43.198786 ], [ 141.023673, 43.198919 ], [ 141.025035, 43.199013 ], [ 141.025636, 43.19899 ], [ 141.02643, 43.198974 ], [ 141.027793, 43.199068 ], [ 141.028833, 43.199209 ], [ 141.030389, 43.199678 ], [ 141.034445, 43.201367 ], [ 141.035635, 43.202173 ], [ 141.041923, 43.210837 ], [ 141.043296, 43.213215 ], [ 141.044197, 43.215216 ], [ 141.044455, 43.217718 ], [ 141.044455, 43.230665 ], [ 141.044712, 43.283829 ], [ 141.043682, 43.287578 ], [ 141.042137, 43.290576 ], [ 141.039734, 43.294325 ], [ 141.036816, 43.296324 ], [ 141.026516, 43.301196 ], [ 141.01656, 43.304944 ], [ 140.846958, 43.348151 ], [ 140.718384, 43.380099 ], [ 140.487671, 43.440581 ], [ 140.478573, 43.441453 ], [ 140.469475, 43.43921 ], [ 140.421925, 43.425497 ], [ 140.293522, 43.379476 ], [ 140.287685, 43.375982 ], [ 140.210266, 43.274706 ], [ 139.97612, 42.932296 ], [ 139.822311, 42.744995 ], [ 139.711761, 42.611222 ], [ 139.695282, 42.550551 ], [ 139.625244, 42.253934 ], [ 139.611511, 42.171037 ], [ 139.549026, 41.758508 ], [ 139.42749, 40.84706 ], [ 139.347839, 40.235509 ], [ 139.243469, 39.370402 ], [ 139.188538, 39.113014 ], [ 139.11438, 38.352426 ], [ 139.10202, 38.19664 ], [ 139.097214, 38.03349 ], [ 139.0979, 38.022672 ], [ 139.082794, 37.977221 ], [ 139.072495, 37.960982 ], [ 139.068804, 37.955365 ], [ 139.066401, 37.945957 ], [ 139.065585, 37.940339 ], [ 139.06713, 37.938681 ], [ 139.068375, 37.938105 ], [ 139.068632, 37.938139 ] ] } },
{ "type": "Feature", "properties": { "id": "U5NTQ", "_umap_options": null }, "geometry": { "type": "LineString", "coordinates": [ [ 134.048288, 34.354362 ], [ 134.051131, 34.359709 ], [ 134.052107, 34.361553 ], [ 134.051614, 34.368233 ], [ 134.037752, 34.375179 ], [ 134.023247, 34.383077 ], [ 133.995352, 34.398885 ], [ 133.983035, 34.404824 ], [ 133.981233, 34.405994 ], [ 133.980031, 34.407517 ], [ 133.979774, 34.408403 ], [ 133.979731, 34.413787 ], [ 133.981619, 34.417684 ], [ 133.983507, 34.423493 ], [ 133.983808, 34.427176 ], [ 133.982177, 34.431285 ], [ 133.97737, 34.438863 ], [ 133.973336, 34.444635 ], [ 133.97059, 34.450442 ], [ 133.969517, 34.452886 ], [ 133.968959, 34.455435 ], [ 133.969088, 34.456462 ], [ 133.96956, 34.45717 ], [ 133.970675, 34.457418 ], [ 133.971748, 34.457064 ], [ 133.97265, 34.456497 ], [ 133.973808, 34.456674 ] ] } },
{ "type": "Feature", "properties": { "id": null, "_umap_options": null }, "geometry": { "type": "LineString", "coordinates": [ [ 139.817337, 35.1698 ], [ 139.816467, 35.170704 ], [ 139.815582, 35.171345 ], [ 139.814468, 35.172176 ], [ 139.81311, 35.173218 ], [ 139.811813, 35.174236 ], [ 139.810532, 35.175316 ], [ 139.808838, 35.17646 ], [ 139.807327, 35.177559 ], [ 139.805573, 35.178802 ], [ 139.804001, 35.179855 ], [ 139.802353, 35.180874 ], [ 139.800705, 35.18185 ], [ 139.798889, 35.182823 ], [ 139.797119, 35.183743 ], [ 139.79538, 35.184666 ], [ 139.793823, 35.18576 ], [ 139.792267, 35.186974 ], [ 139.79071, 35.188107 ], [ 139.789139, 35.189331 ], [ 139.78801, 35.190212 ], [ 139.786179, 35.191483 ], [ 139.784531, 35.192741 ], [ 139.783051, 35.193798 ], [ 139.781952, 35.194878 ], [ 139.780563, 35.19619 ], [ 139.779068, 35.197601 ], [ 139.777664, 35.198891 ], [ 139.776291, 35.200191 ], [ 139.774918, 35.201462 ], [ 139.773743, 35.20282 ], [ 139.772629, 35.204254 ], [ 139.771576, 35.205711 ], [ 139.770508, 35.207161 ], [ 139.769028, 35.208221 ], [ 139.767136, 35.20874 ], [ 139.765091, 35.209232 ], [ 139.763092, 35.209812 ], [ 139.761063, 35.210346 ], [ 139.759064, 35.210876 ], [ 139.757095, 35.211559 ], [ 139.755035, 35.212158 ], [ 139.753067, 35.21273 ], [ 139.751099, 35.213337 ], [ 139.74913, 35.213882 ], [ 139.747208, 35.214436 ], [ 139.745316, 35.215027 ], [ 139.743408, 35.21558 ], [ 139.741455, 35.216087 ], [ 139.739471, 35.216476 ], [ 139.737503, 35.216923 ], [ 139.735626, 35.21748 ], [ 139.733688, 35.21796 ], [ 139.73172, 35.218403 ], [ 139.729752, 35.218887 ], [ 139.727783, 35.219551 ], [ 139.726013, 35.220341 ], [ 139.724319, 35.221207 ], [ 139.722641, 35.222061 ], [ 139.721176, 35.222874 ], [ 139.719788, 35.223736 ], [ 139.718399, 35.224163 ], [ 139.717117, 35.22406 ], [ 139.71608, 35.223755 ], [ 139.715622, 35.22311 ], [ 139.715439, 35.222458 ], [ 139.715378, 35.221951 ], [ 139.715363, 35.221287 ], [ 139.715332, 35.220833 ], [ 139.715306317388695, 35.22059217289069 ] ] } }
]
}
