{
"type": "FeatureCollection",
"name": "incoming_flight",
"crs": { "type": "name", "properties": { "name": "urn:ogc:def:crs:OGC:1.3:CRS84" } },
"features": [
{ "type": "Feature", "properties": { }, "geometry": { "type": "LineString", "coordinates": [ [ 127.632473237968625, 52.489843089156913 ], [ 130.049749675529085, 50.547336615257862 ], [ 133.071345222479692, 47.374575538083207 ], [ 135.589341511605141, 44.233764952105211 ], [ 137.402298839775426, 41.389907920700473 ], [ 138.61093705855572, 38.770238304123978 ], [ 139.479645778303961, 36.441632734413673 ], [ 139.791247819083225, 35.542050919833144 ] ] } }
]
}
