{
"type": "FeatureCollection",
"name": "information",
"crs": { "type": "name", "properties": { "name": "urn:ogc:def:crs:OGC:1.3:CRS84" } },
"features": [
{ "type": "Feature", "properties": { "Name": "Sakura", "Description": "Cute little town I stopped in on the way back from Naritansan.  They had a bamboo path and some historical samurai residences." }, "geometry": { "type": "Point", "coordinates": [ 140.220706550910251, 35.717641785226604 ] } },
{ "type": "Feature", "properties": { "Name": "Takaosan", "Description": "Takaosan is one of the closest mountains (599m) to Tokyo, and is still technically within the city boundaries.  It's just over an hour by direct train from my flat,  and with 6 different routes to explore I ended up coming multiple times. " }, "geometry": { "type": "Point", "coordinates": [ 139.254191966912913, 35.628058999000196 ] } },
{ "type": "Feature", "properties": { "Name": "Mitakesan", "Description": "Roughly 2 hours from Tokyo.  A group of us came for a day trip during Golden Week, as Takaosan would have been far too crowded." }, "geometry": { "type": "Point", "coordinates": [ 139.150005694394224, 35.782275375946107 ] } },
{ "type": "Feature", "properties": { "Name": "Naritasan", "Description": "Naritasan Shinsho-ji is a sprawling temple complex just by the airport.  Despite being so close it never seems to end up on the popular travel itineraries,  but well worth a daytrip I think.  Purely by coindience I ended up going on the first of March when a bunch of spring festivities were being held." }, "geometry": { "type": "Point", "coordinates": [ 140.319879240096355, 35.786004136964451 ] } },
{ "type": "Feature", "properties": { "Name": "Yokosuka", "Description": "Yokosuka is mainly known for the US naval base. When I arrived, there were at least 30 ship-nerds on the bay taking pictures of the fleet." }, "geometry": { "type": "Point", "coordinates": [ 139.65951410872259, 35.283020016234268 ] } },
{ "type": "Feature", "properties": { "Name": "Kurihama", "Description": "I had no particular reason to come to Kurihama,  apart from that it was where my ferry from Chiba ended up (and I wanted to do a loop of Tokyo bay).  Apparently it's where Admiral Perry landed with his black ships." }, "geometry": { "type": "Point", "coordinates": [ 139.712521722581783, 35.221240288891899 ] } },
{ "type": "Feature", "properties": { "Name": "Saitama", "Description": null }, "geometry": { "type": "Point", "coordinates": [ 139.623576743394409, 35.911469454456459 ] } },
{ "type": "Feature", "properties": { "Name": "Kawagoe", "Description": null }, "geometry": { "type": "Point", "coordinates": [ 139.485474582347194, 35.91561442951555 ] } },
{ "type": "Feature", "properties": { "Name": "Nokogiri", "Description": "Went for a day hike up and around Nokogiri in Chiba. It was about 33 degrees and I sweated my entire bodyweight." }, "geometry": { "type": "Point", "coordinates": [ 139.832661525806202, 35.157505373245442 ] } },
{ "type": "Feature", "properties": { "Name": "Roof 明大前", "Description": "I live here with 17 other housemates in a flatshare. The immediate area is residential but with a bike,  much of West Tokyo's best spots are accessible within 10-20 minutes.  If you time it right,  you can get to Shinjuku station in 11 minutes.  The flat has a rooftop terrace and on a clear day you can see Mt Fuji to the west." }, "geometry": { "type": "Point", "coordinates": [ 139.654932544568624, 35.674297828735163 ] } },
{ "type": "Feature", "properties": { "Name": "Shinjuku", "Description": "Great for shopping - otherwise to be avoided at all costs! Getting out the station alone takes about 10 minutes." }, "geometry": { "type": "Point", "coordinates": [ 139.701069170911126, 35.695471453237751 ] } },
{ "type": "Feature", "properties": { "Name": "Shimo-Kitazawa", "Description": "Tokyo's \"Camden\", which is to say,  cool area that has been somewhat tourist and gentrfied.  It's still very nice though. Shimokitazawa is famous for its vintage clothing shops, which I personally find all prohibitively expensive,  but if you go there without intending to buy cloths it's great." }, "geometry": { "type": "Point", "coordinates": [ 139.667639327599971, 35.661495059624912 ] } },
{ "type": "Feature", "properties": { "Name": "Koenji", "Description": "A grungier version of Shimokitazawa. This is the place to go for more reasonably priced vintage clothing." }, "geometry": { "type": "Point", "coordinates": [ 139.648926484084114, 35.704567320307724 ] } },
{ "type": "Feature", "properties": { "Name": "Sakura-shinmachi", "Description": "I stayed here for 2 weeks in a tiny hostel when I initially arrived in Japan." }, "geometry": { "type": "Point", "coordinates": [ 139.644205241041988, 35.631931226517501 ] } },
{ "type": "Feature", "properties": { "Name": "Monzen-Nagacho", "Description": "Old-fashioned downtown neighbourhood in East Tokyo. The local temple holds a musical fire ceremony every day - well worth checking out!" }, "geometry": { "type": "Point", "coordinates": [ 139.796662047610113, 35.672053060193299 ] } },
{ "type": "Feature", "properties": { "Name": "Kagurazaka", "Description": "Tokyo's bougie french-quarter. I stayed here for 6 weeks in Feburary.  A great central spot to explore Tokyo - a little too upmarket for my tastes though,  I felt intimidated walking into many of the shops." }, "geometry": { "type": "Point", "coordinates": [ 139.736466198823194, 35.704177946599607 ] } },
{ "type": "Feature", "properties": { "Name": "Shibuya", "Description": "While I was initially snobby about Shibya (too many tourists/vloggers!) it ended up becoming my main place to go out - once you get out the main station area there are some more grown up spots." }, "geometry": { "type": "Point", "coordinates": [ 139.702901111570668, 35.660546069712204 ] } },
{ "type": "Feature", "properties": { "Name": "Mito", "Description": "Stopped here very briefly to catch the ferry to Hokkaido." }, "geometry": { "type": "Point", "coordinates": [ 140.471086698214009, 36.368696198771502 ] } },
{ "type": "Feature", "properties": { "Name": "Asahikawa", "Description": "Asahikawa is Hokkaido's second largest city,  Japan's northern most major city,  and where the Japanese side of my family grew up.  I used to spend a lot of summers and winter holidays here as a kid,  at my grandma's house,  so I came to Asahikawa mostly for nostalgic reasons" }, "geometry": { "type": "Point", "coordinates": [ 142.354813492401064, 43.765795482595806 ] } },
{ "type": "Feature", "properties": { "Name": "Otaru", "Description": "A former port town,  now turned popular tourist site.  I spent an afternoon here before boarding the ferry to Niigata." }, "geometry": { "type": "Point", "coordinates": [ 141.003062593906861, 43.193457561307561 ] } },
{ "type": "Feature", "properties": { "Name": "Noboribetsu", "Description": "Small onsen town near Sapporo where we stopped for 2 nights." }, "geometry": { "type": "Point", "coordinates": [ 141.142929419029315, 42.500160430953699 ] } },
{ "type": "Feature", "properties": { "Name": "Sapporo", "Description": "Hokkaido's largest city with 2.1 million people. I stayed with my uncle here a few times,  but forgot to record any of the walking routes I did!" }, "geometry": { "type": "Point", "coordinates": [ 141.350565753652177, 43.067461466467776 ] } },
{ "type": "Feature", "properties": { "Name": "Niigata", "Description": "I stayed a night in Niigata,  mainly because it was the destination of my ferry.  It's a working port town and there isn't much in the way of tourist sites - the locals were quite confused as to what I was doing there." }, "geometry": { "type": "Point", "coordinates": [ 139.047779459862824, 37.92317123098357 ] } },
{ "type": "Feature", "properties": { "Name": "Kurobe George", "Description": "We spent a whole day travelling the tiny tourist train through the george, it was incredibly pretty." }, "geometry": { "type": "Point", "coordinates": [ 137.58684981601985, 36.816504991146189 ] } },
{ "type": "Feature", "properties": { "Name": "Toyama", "Description": "Came here with some friends for a few nights, on the recommendation of the New York Times \"52 Places to Go in 2025\" list. We were worried it would be full of tourists - as it turned out there were barely any tourists but a lot of signs proudly proclaiming the New York Times had put them in their travel list!" }, "geometry": { "type": "Point", "coordinates": [ 137.214658489533491, 36.698891855805755 ] } },
{ "type": "Feature", "properties": { "Name": "Takaoka", "Description": "Stopped her briefly to see the big Buddah." }, "geometry": { "type": "Point", "coordinates": [ 137.016022024459744, 36.74558437765895 ] } },
{ "type": "Feature", "properties": { "Name": "Kanazawa", "Description": "The capital of Ishikawa Prefecture, often referred to as \"Little Kyoto\" for its well-preserved historical districts. It was very wet when we visited!" }, "geometry": { "type": "Point", "coordinates": [ 136.65671575710914, 36.568746408978384 ] } },
{ "type": "Feature", "properties": { "Name": "Eiheiji Temple", "Description": "We were never meant to come here - the original plan was to visit a set of historical hamlets near Kanazawa,  but we discovered the night before that I should have booked the coach about a month in advance.  Some frantic last minute planning led us to jump on a quick shinkanzen to this monastry in Fukui. It was pouring with rain when we visited, which added to the atmospere." }, "geometry": { "type": "Point", "coordinates": [ 136.353941457226313, 36.056577340544536 ] } }
]
}
